NORAD_CAT_ID,OBJECT_NAME,OBJECT_TYPE,EPOCH,MEAN_MOTION,ECCENTRICITY,INCLINATION,RA_OF_ASC_NODE,ARG_OF_PERICENTER,MEAN_ANOMALY,BSTAR,MEAN_MOTION_DOT,MEAN_MOTION_DDOT,TLE_LINE0,TLE_LINE1,TLE_LINE2,SEMIMAJOR_AXIS,PERIOD,APOGEE,PERIGEE,DECAYED
51768.0,STARLINK-3622,PAYLOAD,2024-01-18 21:58:07,15.08840192,0.0001375,53.2159,244.1489,103.4352,256.6794,1.3746e-05,-6.9e-07,0.0,0 STARLINK-3622,1 51768U 22017A   24018.91536518 -.00000069  00000-0  13746-4 0  9993,2 51768  53.2159 244.1489 0001375 103.4352 256.6794 15.08840192106172,6917.88,95.438,540.696,538.794,0.0
51768.0,STARLINK-3622,PAYLOAD,2024-01-19 21:48:54,15.08842445,0.0001249,53.2166,239.6879,92.0943,268.0192,0.00010894,1.446e-05,0.0,0 STARLINK-3622,1 51768U 22017A   24019.90896185  .00001446  00000-0  10894-3 0  9991,2 51768  53.2166 239.6879 0001249  92.0943 268.0192 15.08842445106320,6917.873,95.437,540.602,538.874,0.0
51768.0,STARLINK-3622,PAYLOAD,2024-01-20 00:59:40,15.08847908,0.0001375,53.2167,239.0982,114.4397,245.6739,4.1812e-05,3.78e-06,0.0,0 STARLINK-3622,1 51768U 22017A   24020.04143966  .00000378  00000-0  41812-4 0  9998,2 51768  53.2167 239.0982 0001375 114.4397 245.6739 15.08847908106352,6917.856,95.437,540.672,538.77,0.0
51768.0,STARLINK-3622,PAYLOAD,2024-01-20 20:04:18,15.0883536,0.0001276,53.2166,235.5254,98.7234,261.3902,3.1407e-05,2.12e-06,0.0,0 STARLINK-3622,1 51768U 22017A   24020.83633022  .00000212  00000-0  31407-4 0  9998,2 51768  53.2166 235.5254 0001276  98.7234 261.3902 15.08835360106477,6917.895,95.438,540.642,538.877,0.0
51768.0,STARLINK-3622,PAYLOAD,2024-01-20 21:39:42,15.08834709,0.0001266,53.2167,235.2281,90.743,269.3707,2.434e-05,9.9e-07,0.0,0 STARLINK-3622,1 51768U 22017A   24020.90257129  .00000099  00000-0  24340-4 0  9997,2 51768  53.2167 235.2281 0001266  90.7430 269.3707 15.08834709106471,6917.897,95.438,540.637,538.886,0.0
51768.0,STARLINK-3622,PAYLOAD,2024-01-21 19:55:05,15.08852572,0.0001309,53.2164,231.0644,93.8769,266.2373,5.4487e-06,-2.01e-06,0.0,0 STARLINK-3622,1 51768U 22017A   24021.82992134 -.00000201  00000-0  54487-5 0  9993,2 51768  53.2164 231.0644 0001309  93.8769 266.2373 15.08852572106622,6917.842,95.437,540.613,538.801,0.0
51768.0,STARLINK-3622,PAYLOAD,2024-01-21 21:30:29,15.08792892,0.0001753,53.2168,230.7674,94.1407,265.9785,0.00086726,0.00013524,0.0,0 STARLINK-3622,1 51768U 22017A   24021.89617364  .00013524  00000-0  86726-3 0  9999,2 51768  53.2168 230.7674 0001753  94.1407 265.9785 15.08792892106622,6918.024,95.441,541.102,538.677,0.0
51768.0,STARLINK-3622,PAYLOAD,2024-01-21 23:05:51,15.08827307,0.0001539,53.2168,230.47,92.2129,267.904,0.00039414,5.988e-05,0.0,0 STARLINK-3622,1 51768U 22017A   24021.96240674  .00005988  00000-0  39414-3 0  9990,2 51768  53.2168 230.4700 0001539  92.2129 267.9040 15.08827307106649,6917.919,95.438,540.849,538.72,0.0
51768.0,STARLINK-3622,PAYLOAD,2024-01-22 19:45:53,15.08836504,0.0001885,53.2183,226.5992,62.6387,297.4797,4.945e-05,4.99e-06,0.0,0 STARLINK-3622,1 51768U 22017A   24022.82353316  .00000499  00000-0  49450-4 0  9998,2 51768  53.2183 226.5992 0001885  62.6387 297.4797 15.08836504106765,6917.891,95.438,541.06,538.452,0.0
51768.0,STARLINK-3622,PAYLOAD,2024-01-23 03:42:48,15.08839719,0.0001392,53.2156,225.1197,86.0015,274.1136,8.9549e-05,1.138e-05,0.0,0 STARLINK-3622,1 51768U 22017A   24023.15472805  .00001138  00000-0  89549-4 0  9994,2 51768  53.2156 225.1197 0001392  86.0015 274.1136 15.08839719106825,6917.881,95.438,540.709,538.783,0.0
51768.0,STARLINK-3622,PAYLOAD,2024-01-23 14:50:30,15.08848853,0.0001417,53.2151,223.0397,87.8131,272.3023,5.5021e-05,5.88e-06,0.0,0 STARLINK-3622,1 51768U 22017A   24023.61840320  .00000588  00000-0  55021-4 0  9992,2 51768  53.2151 223.0397 0001417  87.8131 272.3023 15.08848853106896,6917.853,95.437,540.699,538.738,0.0
51768.0,STARLINK-3622,PAYLOAD,2024-01-23 21:12:02,15.08853604,0.000136,53.2155,221.8511,83.0328,277.0818,3.0627e-05,2e-06,0.0,0 STARLINK-3622,1 51768U 22017A   24023.88335937  .00000200  00000-0  30627-4 0  9990,2 51768  53.2155 221.8511 0001360  83.0328 277.0818 15.08853604106925,6917.839,95.437,540.645,538.763,0.0
51768.0,STARLINK-3622,PAYLOAD,2024-01-24 03:33:35,15.08835699,0.0001541,53.2155,220.6617,79.7063,280.4103,-6.1906e-05,-1.273e-05,0.0,0 STARLINK-3622,1 51768U 22017A   24024.14833184 -.00001273  00000-0 -61906-4 0  9994,2 51768  53.2155 220.6617 0001541  79.7063 280.4103 15.08835699106972,6917.894,95.438,540.825,538.692,0.0
51768.0,STARLINK-3622,PAYLOAD,2024-01-24 13:05:54,15.08836863,0.0001454,53.2152,218.8775,81.739,278.3767,5.2245e-05,5.44e-06,0.0,0 STARLINK-3622,1 51768U 22017A   24024.54577085  .00000544  00000-0  52245-4 0  9997,2 51768  53.2152 218.8775 0001454  81.7390 278.3767 15.08836863107025,6917.89,95.438,540.761,538.749,0.0
51768.0,STARLINK-3622,PAYLOAD,2024-01-24 21:02:50,15.08839615,0.0001422,53.2145,217.3911,85.2817,274.8337,7.8516e-05,9.62e-06,0.0,0 STARLINK-3622,1 51768U 22017A   24024.87696959  .00000962  00000-0  78516-4 0  9998,2 51768  53.2145 217.3911 0001422  85.2817 274.8337 15.08839615107078,6917.882,95.438,540.73,538.763,0.0
51768.0,STARLINK-3622,PAYLOAD,2024-01-24 22:38:13,15.08840738,0.0001403,53.2143,217.0935,84.9743,275.1409,0.00010162,1.33e-05,0.0,0 STARLINK-3622,1 51768U 22017A   24024.94320928  .00001330  00000-0  10162-3 0  9998,2 51768  53.2143 217.0935 0001403  84.9743 275.1409 15.08840738107096,6917.878,95.438,540.714,538.773,0.0
51768.0,STARLINK-3622,PAYLOAD,2024-01-25 19:18:13,15.08855683,0.000138,53.2144,213.2276,84.339,275.776,0.00026145,3.877e-05,0.0,0 STARLINK-3622,1 51768U 22017A   24025.80432038  .00003877  00000-0  26145-3 0  9996,2 51768  53.2144 213.2276 0001380  84.3390 275.7760 15.08855683107225,6917.832,95.437,540.652,538.743,0.0
51768.0,STARLINK-3622,PAYLOAD,2024-01-26 17:33:37,15.08841952,0.0001361,53.2141,209.0635,100.2593,259.8552,0.00010195,1.335e-05,0.0,0 STARLINK-3622,1 51768U 22017A   24026.73168544  .00001335  00000-0  10195-3 0  9992,2 51768  53.2141 209.0635 0001361 100.2593 259.8552 15.08841952107367,6917.874,95.437,540.681,538.798,0.0
51768.0,STARLINK-3622,PAYLOAD,2024-01-27 17:24:24,15.08838981,0.0001369,53.2147,204.6001,105.1827,254.9316,-2.4105e-05,-6.72e-06,0.0,0 STARLINK-3622,1 51768U 22017A   24027.72528692 -.00000672  00000-0 -24105-4 0  9998,2 51768  53.2147 204.6001 0001369 105.1827 254.9316 15.08838981107512,6917.884,95.438,540.696,538.801,0.0
51768.0,STARLINK-3622,PAYLOAD,2024-01-27 20:35:12,15.08807409,0.0001547,53.2148,204.0052,101.6208,258.4957,0.0010018,0.00015677,0.0,0 STARLINK-3622,1 51768U 22017A   24027.85778624  .00015677  00000-0  10018-2 0  9999,2 51768  53.2148 204.0052 0001547 101.6208 258.4957 15.08807409107527,6917.98,95.44,540.915,538.775,0.0
51768.0,STARLINK-3622,PAYLOAD,2024-01-28 10:53:39,15.08835492,0.0001338,53.2152,201.3342,82.7584,277.356,0.0001268,1.73e-05,0.0,0 STARLINK-3622,1 51768U 22017A   24028.45393315  .00001730  00000-0  12680-3 0  9999,2 51768  53.2152 201.3342 0001338  82.7584 277.3560 15.08835492107622,6917.894,95.438,540.685,538.834,0.0
51768.0,STARLINK-3622,PAYLOAD,2024-01-28 18:50:35,15.08837491,0.0001362,53.2153,199.8468,79.1149,280.9996,0.00013872,1.92e-05,0.0,0 STARLINK-3622,1 51768U 22017A   24028.78513380  .00001920  00000-0  13872-3 0  9996,2 51768  53.2153 199.8468 0001362  79.1149 280.9996 15.08837491107665,6917.888,95.438,540.695,538.811,0.0
51768.0,STARLINK-3622,PAYLOAD,2024-01-29 10:44:26,15.08841379,0.0001455,53.2159,196.8734,75.1214,284.994,0.00015909,2.245e-05,0.0,0 STARLINK-3622,1 51768U 22017A   24029.44753409  .00002245  00000-0  15909-3 0  9992,2 51768  53.2159 196.8734 0001455  75.1214 284.9940 15.08841379107760,6917.876,95.437,540.748,538.735,0.0
51768.0,STARLINK-3622,PAYLOAD,2024-01-30 10:35:14,15.0884283,0.0001377,53.2157,192.4124,77.2659,282.8487,0.00014145,1.964e-05,0.0,0 STARLINK-3622,1 51768U 22017A   24030.44113465  .00001964  00000-0  14145-3 0  9994,2 51768  53.2157 192.4124 0001377  77.2659 282.8487 15.08842830107926,6917.872,95.437,540.689,538.784,0.0
51768.0,STARLINK-3622,PAYLOAD,2024-01-30 16:56:46,15.08842897,0.0001351,53.2156,191.2225,78.6949,281.4195,0.00013098,1.797e-05,0.0,0 STARLINK-3622,1 51768U 22017A   24030.70609456  .00001797  00000-0  13098-3 0  9993,2 51768  53.2156 191.2225 0001351  78.6949 281.4195 15.08842897107950,6917.872,95.437,540.671,538.802,0.0
51768.0,STARLINK-3622,PAYLOAD,2024-01-31 10:26:01,15.08840179,0.0001258,53.2143,187.9515,81.0768,279.0366,9.903e-05,1.289e-05,0.0,0 STARLINK-3622,1 51768U 22017A   24031.43473565  .00001289  00000-0  99030-4 0  9991,2 51768  53.2143 187.9515 0001258  81.0768 279.0366 15.08840179108071,6917.88,95.438,540.615,538.875,0.0
51768.0,STARLINK-3622,PAYLOAD,2024-02-01 19:49:07,15.08835044,0.0001245,53.2157,181.7068,91.5618,268.5516,3.0121e-05,1.91e-06,0.0,0 STARLINK-3622,1 51768U 22017A   24032.82578161  .00000191  00000-0  30121-4 0  9990,2 51768  53.2157 181.7068 0001245  91.5618 268.5516 15.08835044108285,6917.896,95.438,540.622,538.899,0.0
51768.0,STARLINK-3622,PAYLOAD,2024-02-02 14:53:44,15.08846656,0.0001281,53.2161,178.139,84.024,276.0898,0.00015898,2.244e-05,0.0,0 STARLINK-3622,1 51768U 22017A   24033.62065228  .00002244  00000-0  15898-3 0  9998,2 51768  53.2161 178.1390 0001281  84.0240 276.0898 15.08846656108396,6917.86,95.437,540.611,538.839,0.0
51768.0,STARLINK-3622,PAYLOAD,2024-02-02 16:29:07,15.08848164,0.0001319,53.216,177.8418,83.1394,276.9749,0.00017119,2.438e-05,0.0,0 STARLINK-3622,1 51768U 22017A   24033.68689122  .00002438  00000-0  17119-3 0  9992,2 51768  53.2160 177.8418 0001319  83.1394 276.9749 15.08848164108417,6917.855,95.437,540.633,538.808,0.0
51768.0,STARLINK-3622,PAYLOAD,2024-02-03 13:09:09,15.08834686,0.0001707,53.2176,173.9765,85.9794,274.1393,0.00010003,1.304e-05,0.0,0 STARLINK-3622,1 51768U 22017A   24034.54802363  .00001304  00000-0  10003-3 0  9998,2 51768  53.2176 173.9765 0001707  85.9794 274.1393 15.08834686108533,6917.897,95.438,540.943,538.581,0.0
